      2.10          N: GNSS NAV DATA                        RINEX VERSION / TYPE
fic2rin                                 11/14/2023 00:17:51 PGM / RUN BY / DATE
                                                            END OF HEADER
3  23 11 13  2  0  0.0 -.179894268513D-04  .251247911365D-10  .000000000000D+00
     .800000000000D+01 -.132187500000D+02  .381837333629D-08 -.157081985491D+01
    -.758096575737D-06  .506609922741D-02  .115595757961D-04  .515357002640D+04
     .936000000000D+05  .117346644402D-06  .295331025746D+00  .316649675369D-07
     .981747430681D+00  .169718750000D+03  .111607280132D+01 -.752352767084D-08
     .393230665350D-09  .100000000000D+01  .228800000000D+04  .000000000000D+00
     .240000000000D+01  .000000000000D+00  .186264514923D-08  .800000000000D+01
     .864000000000D+05  .400000000000D+01
2  23 11 13  2  0  0.0 -.529711134732D-03  .500222085975D-11  .000000000000D+00
     .460000000000D+02 -.135937500000D+03  .433053752713D-08  .222910610507D+01
    -.703148543835D-05  .161856820341D-01  .535696744919D-05  .515373679924D+04
     .936000000000D+05  .208616256714D-06 -.835589449037D+00 -.102445483208D-06
     .967636179942D+00  .272937500000D+03 -.131560015134D+01 -.787425656582D-08
    -.515021452711D-09  .100000000000D+01  .228800000000D+04  .000000000000D+00
     .240000000000D+01  .000000000000D+00 -.176951289177D-07  .460000000000D+02
     .864000000000D+05  .400000000000D+01
1  23 11 13  2  0  0.0  .163197517395D-03  .000000000000D+00  .000000000000D+00
     .350000000000D+02 -.118468750000D+03  .386551815720D-08 -.383562382947D+00
    -.620260834694D-05  .129301956622D-01  .722706317902D-05  .515363617897D+04
     .936000000000D+05 -.745058059692D-07 -.733256787477D+00  .149011611938D-06
     .990561159545D+00  .254906250000D+03  .989986889591D+00 -.801783397497D-08
    -.390730561211D-09  .100000000000D+01  .228800000000D+04  .000000000000D+00
     .240000000000D+01  .630000000000D+02  .512227416039D-08  .350000000000D+02
     .864000000000D+05  .400000000000D+01
4  23 11 13  2  0  0.0  .211315229535D-03  .104591890704D-10  .000000000000D+00
     .160000000000D+03  .925000000000D+01  .485020203038D-08  .146458855909D+01
     .605359673500D-06  .268778728787D-02  .465288758278D-05  .515359887886D+04
     .936000000000D+05 -.149011611938D-07  .137532891677D+01  .465661287308D-07
     .963180545479D+00  .291312500000D+03 -.305849995706D+01 -.820677041636D-08
     .710743891050D-10  .100000000000D+01  .228800000000D+04  .000000000000D+00
     .240000000000D+01  .000000000000D+00 -.419095158577D-08  .160000000000D+03
     .864000000000D+05  .400000000000D+01
20 23 11 13  8  0  0.0  .401885714382D-03 -.193267624127D-11  .000000000000D+00
     .800000000000D+02 -.537812500000D+02  .449054419205D-08 -.273473853309D+01
    -.275857746601D-05  .410620076582D-02  .116582959890D-04  .515365868187D+04
     .115200000000D+06 -.428408384323D-07  .121071199719D+00 -.119209289551D-06
     .951341013412D+00  .147218750000D+03 -.277340418792D+01 -.781925427475D-08
     .310012913282D-09  .100000000000D+01  .228800000000D+04  .000000000000D+00
     .240000000000D+01  .000000000000D+00 -.838190317154D-08  .800000000000D+02
     .108000000000D+06  .400000000000D+01
26 23 11 13  8  0  0.0  .216979999095D-03 -.261479726760D-11  .000000000000D+00
     .920000000000D+02  .122781250000D+03  .475376944215D-08  .405442700064D+00
     .650808215141D-05  .851821759716D-02  .969693064690D-05  .515379186440D+04
     .115200000000D+06  .633299350739D-07 -.292204802579D+01  .191852450371D-06
     .933025081565D+00  .176531250000D+03  .491022949808D+00 -.822248535666D-08
     .367872466222D-10  .100000000000D+01  .228800000000D+04  .000000000000D+00
     .240000000000D+01  .000000000000D+00  .698491930962D-08  .920000000000D+02
     .108000000000D+06  .400000000000D+01
17 23 11 13  8  0  0.0  .723284203559D-03 -.454747350886D-12  .000000000000D+00
     .820000000000D+02  .321250000000D+02  .470126725522D-08 -.136321429027D+01
     .203959643841D-05  .138463749317D-01  .776723027229D-06  .515361265373D+04
     .115200000000D+06 -.264495611191D-06 -.173944281473D+01  .266358256340D-06
     .971568363299D+00  .375468750000D+03 -.137685279903D+01 -.856071373095D-08
     .198222542479D-09  .100000000000D+01  .228800000000D+04  .000000000000D+00
     .240000000000D+01  .000000000000D+00 -.111758708954D-07  .820000000000D+02
     .108000000000D+06  .400000000000D+01
25 23 11 13  8  0  0.0  .477171968669D-03  .170530256582D-11  .000000000000D+00
     .870000000000D+02  .114906250000D+03  .434910972931D-08  .119096270845D+01
     .595673918724D-05  .114221135154D-01  .987574458122D-05  .515366564369D+04
     .115200000000D+06 -.167638063431D-06 -.286324372950D+01  .335276126862D-07
     .952235777997D+00  .185531250000D+03  .105500803474D+01 -.813641034272D-08
     .135719938995D-10  .100000000000D+01  .228800000000D+04  .000000000000D+00
     .240000000000D+01  .000000000000D+00  .558793544769D-08  .870000000000D+02
     .108000000000D+06  .400000000000D+01
13 23 11 13  8  0  0.0  .594740267843D-03  .409272615798D-11  .000000000000D+00
     .850000000000D+02  .162500000000D+01  .472912555849D-08 -.175221826034D+01
     .147148966789D-06  .769224867690D-02  .466592609882D-05  .515365351868D+04
     .115200000000D+06  .126659870148D-06  .148010926118D+01 -.167638063431D-07
     .969958366362D+00  .295125000000D+03  .954669813281D+00 -.802569144512D-08
     .000000000000D+00  .100000000000D+01  .228800000000D+04  .000000000000D+00
     .240000000000D+01  .000000000000D+00 -.116415321827D-07  .850000000000D+02
     .108000000000D+06  .400000000000D+01
19 23 11 13  8  0  0.0  .398245640099D-03  .522959453519D-11  .000000000000D+00
     .107000000000D+03  .185937500000D+02  .473126850490D-08  .692286019943D+00
     .862404704094D-06  .934827304445D-02  .378116965294D-06  .515365993118D+04
     .115200000000D+06  .838190317154D-07 -.169498068641D+01 -.104308128357D-06
     .970684321904D+00  .376156250000D+03  .244473066686D+01 -.856071373095D-08
     .138220043134D-09  .100000000000D+01  .228800000000D+04  .000000000000D+00
     .240000000000D+01  .000000000000D+00 -.153668224812D-07  .107000000000D+03
     .108000000000D+06  .400000000000D+01
11 23 11 13  8  0  0.0 -.457957852632D-03 -.162572177942D-10  .000000000000D+00
     .700000000000D+02 -.139250000000D+03  .439018286874D-08 -.210801443620D+01
    -.717304646969D-05  .126868358348D-02  .659935176373D-05  .515362608719D+04
     .115200000000D+06  .465661287308D-07 -.704322456395D+00 -.391155481339D-07
     .966084306203D+00  .254968750000D+03 -.260287305920D+01 -.804712090917D-08
    -.204651381694D-09  .100000000000D+01  .228800000000D+04  .000000000000D+00
     .240000000000D+01  .000000000000D+00 -.838190317154D-08  .582000000000D+03
     .108000000000D+06  .400000000000D+01
23 23 11 13  8  0  0.0  .981227494776D-04  .636646291241D-11  .000000000000D+00
     .810000000000D+02 -.190312500000D+02  .407659837811D-08  .182271338747D+01
    -.925734639168D-06  .385986850597D-02  .117048621178D-04  .515369558907D+04
     .115200000000D+06 -.186264514923D-08  .264551023086D+00  .100582838058D-06
     .976616361089D+00  .162687500000D+03 -.304275627700D+01 -.767746265428D-08
     .418946022212D-09  .100000000000D+01  .228800000000D+04  .000000000000D+00
     .240000000000D+01  .000000000000D+00 -.838190317154D-08  .337000000000D+03
     .108000000000D+06  .400000000000D+01
14 23 11 13  8  0  0.0  .241864938289D-03  .108002495836D-10  .000000000000D+00
     .219000000000D+03  .130250000000D+03  .441625538333D-08  .130816936575D+01
     .674836337566D-05  .366790359840D-02  .101421028376D-04  .515368971443D+04
     .115200000000D+06 -.614672899246D-07 -.282031428728D+01  .577419996262D-07
     .947744381038D+00  .175468750000D+03 -.294782597653D+01 -.801390523989D-08
     .106433004790D-09  .100000000000D+01  .228800000000D+04  .000000000000D+00
     .240000000000D+01  .000000000000D+00 -.791624188423D-08  .731000000000D+03
     .108000000000D+06  .400000000000D+01
